[
    {
        "Altitude(m)": 577573.5690654798,
        "Argument of Periapsis(deg)": 0.0,
        "Eccentricity": 0.0,
        "Inclination(deg)": 97.0,
        "Latitude(deg)": -37.189454693015506,
        "Longitude(deg)": -94.65297543549016,
        "Mean Anomaly(deg)": 322.7586,
        "RAAN(deg)": 0.0,
        "Satellite Name": "Starlink Shell 3 1636",
        "Satellite Number": 1636,
        "Semi-Major Axis(m)": 6938478.169268562,
        "Time(s)": 0
    },
    {
        "Altitude(m)": 577320.5805558666,
        "Argument of Periapsis(deg)": -0.0003965466804030246,
        "Eccentricity": 0.0,
        "Inclination(deg)": 97.0,
        "Latitude(deg)": -36.571337099414265,
        "Longitude(deg)": -94.81312552223699,
        "Mean Anomaly(deg)": 323.38407619770504,
        "RAAN(deg)": 0.00010433427400896087,
        "Satellite Name": "Starlink Shell 3 1636",
        "Satellite Number": 1636,
        "Semi-Major Axis(m)": 6938478.169268562,
        "Time(s)": 10
    },
    {
        "Altitude(m)": 577068.2557506086,
        "Argument of Periapsis(deg)": -0.0007930933608060492,
        "Eccentricity": 0.0,
        "Inclination(deg)": 97.0,
        "Latitude(deg)": -35.95301107696906,
        "Longitude(deg)": -94.97141135429175,
        "Mean Anomaly(deg)": 324.0095523954101,
        "RAAN(deg)": 0.00020866854801792175,
        "Satellite Name": "Starlink Shell 3 1636",
        "Satellite Number": 1636,
        "Semi-Major Axis(m)": 6938478.169268562,
        "Time(s)": 20
    },
    {
        "Altitude(m)": 576816.6917009169,
        "Argument of Periapsis(deg)": -0.001189640041209074,
        "Eccentricity": 0.0,
        "Inclination(deg)": 97.0,
        "Latitude(deg)": -35.33448134726727,
        "Longitude(deg)": -95.12790288013154,
        "Mean Anomaly(deg)": 324.6350285931151,
        "RAAN(deg)": 0.0003130028220268826,
        "Satellite Name": "Starlink Shell 3 1636",
        "Satellite Number": 1636,
        "Semi-Major Axis(m)": 6938478.169268562,
        "Time(s)": 30
    },
    {
        "Altitude(m)": 576565.9849501961,
        "Argument of Periapsis(deg)": -0.0015861867216120985,
        "Eccentricity": 0.0,
        "Inclination(deg)": 97.0,
        "Latitude(deg)": -34.715752491932875,
        "Longitude(deg)": -95.28266663104665,
        "Mean Anomaly(deg)": 325.26050479082016,
        "RAAN(deg)": 0.0004173370960358435,
        "Satellite Name": "Starlink Shell 3 1636",
        "Satellite Number": 1636,
        "Semi-Major Axis(m)": 6938478.169268562,
        "Time(s)": 40
    },
    {
        "Altitude(m)": 576316.2314901338,
        "Argument of Periapsis(deg)": -0.0019827334020151234,
        "Eccentricity": 0.0,
        "Inclination(deg)": 97.0,
        "Latitude(deg)": -34.09682896250642,
        "Longitude(deg)": -95.43576689091944,
        "Mean Anomaly(deg)": 325.8859809885252,
        "RAAN(deg)": 0.0005216713700448044,
        "Satellite Name": "Starlink Shell 3 1636",
        "Satellite Number": 1636,
        "Semi-Major Axis(m)": 6938478.169268562,
        "Time(s)": 50
    },
    {
        "Altitude(m)": 576067.526717017,
        "Argument of Periapsis(deg)": -0.002379280082418148,
        "Eccentricity": 0.0,
        "Inclination(deg)": 97.0,
        "Latitude(deg)": -33.47771508966175,
        "Longitude(deg)": -95.5872653429389,
        "Mean Anomaly(deg)": 326.51145718623025,
        "RAAN(deg)": 0.0006260056440537652,
        "Satellite Name": "Starlink Shell 3 1636",
        "Satellite Number": 1636,
        "Semi-Major Axis(m)": 6938478.169268562,
        "Time(s)": 60
    },
    {
        "Altitude(m)": 575819.9653882588,
        "Argument of Periapsis(deg)": -0.002775826762821173,
        "Eccentricity": 0.0,
        "Inclination(deg)": 97.0,
        "Latitude(deg)": -32.85841509180653,
        "Longitude(deg)": -95.73722070687728,
        "Mean Anomaly(deg)": 327.1369333839353,
        "RAAN(deg)": 0.0007303399180627261,
        "Satellite Name": "Starlink Shell 3 1636",
        "Satellite Number": 1636,
        "Semi-Major Axis(m)": 6938478.169268562,
        "Time(s)": 70
    },
    {
        "Altitude(m)": 575573.6415792179,
        "Argument of Periapsis(deg)": -0.003172373443224197,
        "Eccentricity": 0.0,
        "Inclination(deg)": 97.0,
        "Latitude(deg)": -32.2389330831104,
        "Longitude(deg)": -95.88568988049228,
        "Mean Anomaly(deg)": 327.7624095816404,
        "RAAN(deg)": 0.000834674192071687,
        "Satellite Name": "Starlink Shell 3 1636",
        "Satellite Number": 1636,
        "Semi-Major Axis(m)": 6938478.169268562,
        "Time(s)": 80
    },
    {
        "Altitude(m)": 575328.6486402863,
        "Argument of Periapsis(deg)": -0.0035689201236272223,
        "Eccentricity": 0.0,
        "Inclination(deg)": 97.0,
        "Latitude(deg)": -31.619273081001513,
        "Longitude(deg)": -96.03272755993912,
        "Mean Anomaly(deg)": 328.3878857793454,
        "RAAN(deg)": 0.0009390084660806479,
        "Satellite Name": "Starlink Shell 3 1636",
        "Satellite Number": 1636,
        "Semi-Major Axis(m)": 6938478.169268562,
        "Time(s)": 90
    },
    {
        "Altitude(m)": 575085.0791542884,
        "Argument of Periapsis(deg)": -0.003965466804030247,
        "Eccentricity": 0.0,
        "Inclination(deg)": 97.0,
        "Latitude(deg)": -30.999439013169788,
        "Longitude(deg)": -96.17838585264745,
        "Mean Anomaly(deg)": 329.01336197705047,
        "RAAN(deg)": 0.0010433427400896088,
        "Satellite Name": "Starlink Shell 3 1636",
        "Satellite Number": 1636,
        "Semi-Major Axis(m)": 6938478.169268562,
        "Time(s)": 100
    },
    {
        "Altitude(m)": 574843.0248942093,
        "Argument of Periapsis(deg)": -0.004362013484433271,
        "Eccentricity": 0.0,
        "Inclination(deg)": 97.0,
        "Latitude(deg)": -30.379434724108393,
        "Longitude(deg)": -96.32271539607576,
        "Mean Anomaly(deg)": 329.63883817475545,
        "RAAN(deg)": 0.0011476770140985695,
        "Satellite Name": "Starlink Shell 3 1636",
        "Satellite Number": 1636,
        "Semi-Major Axis(m)": 6938478.169268562,
        "Time(s)": 110
    },
    {
        "Altitude(m)": 574602.5767812723,
        "Argument of Periapsis(deg)": -0.004758560164836296,
        "Eccentricity": 0.0,
        "Inclination(deg)": 97.0,
        "Latitude(deg)": -29.75926398122722,
        "Longitude(deg)": -96.46576495708486,
        "Mean Anomaly(deg)": 330.2643143724605,
        "RAAN(deg)": 0.0012520112881075304,
        "Satellite Name": "Starlink Shell 3 1636",
        "Satellite Number": 1636,
        "Semi-Major Axis(m)": 6938478.169268562,
        "Time(s)": 120
    },
    {
        "Altitude(m)": 574363.8248433904,
        "Argument of Periapsis(deg)": -0.005155106845239321,
        "Eccentricity": 0.0,
        "Inclination(deg)": 97.0,
        "Latitude(deg)": -29.13893048056682,
        "Longitude(deg)": -96.60758102526094,
        "Mean Anomaly(deg)": 330.88979057016553,
        "RAAN(deg)": 0.0013563455621164913,
        "Satellite Name": "Starlink Shell 3 1636",
        "Satellite Number": 1636,
        "Semi-Major Axis(m)": 6938478.169268562,
        "Time(s)": 130
    },
    {
        "Altitude(m)": 574126.8581740088,
        "Argument of Periapsis(deg)": -0.005551653525642346,
        "Eccentricity": 0.0,
        "Inclination(deg)": 97.0,
        "Latitude(deg)": -28.51843785213845,
        "Longitude(deg)": -96.74820891348195,
        "Mean Anomaly(deg)": 331.51526676787057,
        "RAAN(deg)": 0.0014606798361254522,
        "Satellite Name": "Starlink Shell 3 1636",
        "Satellite Number": 1636,
        "Semi-Major Axis(m)": 6938478.169268562,
        "Time(s)": 140
    },
    {
        "Altitude(m)": 573891.7648913608,
        "Argument of Periapsis(deg)": -0.005948200206045371,
        "Eccentricity": 0.0,
        "Inclination(deg)": 97.0,
        "Latitude(deg)": -27.897789664915972,
        "Longitude(deg)": -96.88769234036495,
        "Mean Anomaly(deg)": 332.1407429655756,
        "RAAN(deg)": 0.0015650141101344129,
        "Satellite Name": "Starlink Shell 3 1636",
        "Satellite Number": 1636,
        "Semi-Major Axis(m)": 6938478.169268562,
        "Time(s)": 150
    },
    {
        "Altitude(m)": 573658.6320981783,
        "Argument of Periapsis(deg)": -0.006344746886448394,
        "Eccentricity": 0.0,
        "Inclination(deg)": 97.0,
        "Latitude(deg)": -27.276989431503043,
        "Longitude(deg)": -97.0260730078268,
        "Mean Anomaly(deg)": 332.7662191632807,
        "RAAN(deg)": 0.001669348384143374,
        "Satellite Name": "Starlink Shell 3 1636",
        "Satellite Number": 1636,
        "Semi-Major Axis(m)": 6938478.169268562,
        "Time(s)": 160
    },
    {
        "Altitude(m)": 573427.5458418324,
        "Argument of Periapsis(deg)": -0.00674129356685142,
        "Eccentricity": 0.0,
        "Inclination(deg)": 97.0,
        "Latitude(deg)": -26.65604061249426,
        "Longitude(deg)": -97.16339168696442,
        "Mean Anomaly(deg)": 333.39169536098575,
        "RAAN(deg)": 0.001773682658152335,
        "Satellite Name": "Starlink Shell 3 1636",
        "Satellite Number": 1636,
        "Semi-Major Axis(m)": 6938478.169268562,
        "Time(s)": 170
    },
    {
        "Altitude(m)": 573198.5910749859,
        "Argument of Periapsis(deg)": -0.007137840247254445,
        "Eccentricity": 0.0,
        "Inclination(deg)": 97.0,
        "Latitude(deg)": -26.034946620552123,
        "Longitude(deg)": -97.29968778681048,
        "Mean Anomaly(deg)": 334.0171715586908,
        "RAAN(deg)": 0.0018780169321612958,
        "Satellite Name": "Starlink Shell 3 1636",
        "Satellite Number": 1636,
        "Semi-Major Axis(m)": 6938478.169268562,
        "Time(s)": 180
    }
]